CCSDS_OMM_VERS = 2.0
CREATION_DATE  = 
ORIGINATOR     = 

OBJECT_NAME    = STARLINK-36879
OBJECT_ID      = 2026-038X
CENTER_NAME    = EARTH
REF_FRAME      = TEME
TIME_SYSTEM    = UTC
MEAN_ELEMENT_THEORY = SGP/SGP4

EPOCH          = 2026-03-08T22:00:01.999584
MEAN_MOTION    = 15.93123751
ECCENTRICITY   = .00012008
INCLINATION    = 97.2687
RA_OF_ASC_NODE = 78.1722
ARG_OF_PERICENTER = 69.4696
MEAN_ANOMALY   = 312.8995

EPHEMERIS_TYPE = 0
CLASSIFICATION_TYPE = U
NORAD_CAT_ID   = 67982
ELEMENT_SET_NO = 999
REV_AT_EPOCH   = 307
BSTAR          = -.45504836E-2
MEAN_MOTION_DOT = -.1576472E-1
MEAN_MOTION_DDOT = .70744414E-3

CCSDS_OMM_VERS = 2.0
CREATION_DATE  = 
ORIGINATOR     = 

OBJECT_NAME    = STARLINK-36867
OBJECT_ID      = 2026-038Y
CENTER_NAME    = EARTH
REF_FRAME      = TEME
TIME_SYSTEM    = UTC
MEAN_ELEMENT_THEORY = SGP/SGP4

EPOCH          = 2026-03-08T22:00:01.999584
MEAN_MOTION    = 15.93434849
ECCENTRICITY   = .00013646
INCLINATION    = 97.2684
RA_OF_ASC_NODE = 78.1761
ARG_OF_PERICENTER = 65.6757
MEAN_ANOMALY   = 325.4772

EPHEMERIS_TYPE = 0
CLASSIFICATION_TYPE = U
NORAD_CAT_ID   = 67983
ELEMENT_SET_NO = 999
REV_AT_EPOCH   = 307
BSTAR          = -.4486445E-2
MEAN_MOTION_DOT = -.157967E-1
MEAN_MOTION_DDOT = .71236762E-3

CCSDS_OMM_VERS = 2.0
CREATION_DATE  = 
ORIGINATOR     = 

OBJECT_NAME    = STARLINK-36266
OBJECT_ID      = 2026-038Z
CENTER_NAME    = EARTH
REF_FRAME      = TEME
TIME_SYSTEM    = UTC
MEAN_ELEMENT_THEORY = SGP/SGP4

EPOCH          = 2026-03-08T22:00:01.999584
MEAN_MOTION    = 15.93291762
ECCENTRICITY   = .0001287
INCLINATION    = 97.2685
RA_OF_ASC_NODE = 78.1746
ARG_OF_PERICENTER = 70.1742
MEAN_ANOMALY   = 317.0283

EPHEMERIS_TYPE = 0
CLASSIFICATION_TYPE = U
NORAD_CAT_ID   = 67984
ELEMENT_SET_NO = 999
REV_AT_EPOCH   = 304
BSTAR          = -.45025751E-2
MEAN_MOTION_DOT = -.1573621E-1
MEAN_MOTION_DDOT = .70628197E-3

CCSDS_OMM_VERS = 2.0
CREATION_DATE  = 
ORIGINATOR     = 

OBJECT_NAME    = STARLINK-36802
OBJECT_ID      = 2026-038AA
CENTER_NAME    = EARTH
REF_FRAME      = TEME
TIME_SYSTEM    = UTC
MEAN_ELEMENT_THEORY = SGP/SGP4

EPOCH          = 2026-03-08T22:00:01.999584
MEAN_MOTION    = 15.93557377
ECCENTRICITY   = .00012664
INCLINATION    = 97.2680
RA_OF_ASC_NODE = 78.1775
ARG_OF_PERICENTER = 76.3216
MEAN_ANOMALY   = 318.4430

EPHEMERIS_TYPE = 0
CLASSIFICATION_TYPE = U
NORAD_CAT_ID   = 67985
ELEMENT_SET_NO = 999
REV_AT_EPOCH   = 307
BSTAR          = -.44374728E-2
MEAN_MOTION_DOT = -.1572515E-1
MEAN_MOTION_DDOT = .70727863E-3

CCSDS_OMM_VERS = 2.0
CREATION_DATE  = 
ORIGINATOR     = 

OBJECT_NAME    = STARLINK-36535
OBJECT_ID      = 2026-039A
CENTER_NAME    = EARTH
REF_FRAME      = TEME
TIME_SYSTEM    = UTC
MEAN_ELEMENT_THEORY = SGP/SGP4

EPOCH          = 2026-03-08T22:00:01.999584
MEAN_MOTION    = 15.85995563
ECCENTRICITY   = .00014929
INCLINATION    = 42.9978
RA_OF_ASC_NODE = 59.6950
ARG_OF_PERICENTER = 252.8674
MEAN_ANOMALY   = 56.1869

EPHEMERIS_TYPE = 0
CLASSIFICATION_TYPE = U
NORAD_CAT_ID   = 67986
ELEMENT_SET_NO = 999
REV_AT_EPOCH   = 275
BSTAR          = -.68406974E-2
MEAN_MOTION_DOT = -.1535791E-1
MEAN_MOTION_DDOT = 0

CCSDS_OMM_VERS = 2.0
CREATION_DATE  = 
ORIGINATOR     = 

OBJECT_NAME    = STARLINK-36744
OBJECT_ID      = 2026-039B
CENTER_NAME    = EARTH
REF_FRAME      = TEME
TIME_SYSTEM    = UTC
MEAN_ELEMENT_THEORY = SGP/SGP4

EPOCH          = 2026-03-08T22:00:01.999584
MEAN_MOTION    = 15.86182592
ECCENTRICITY   = .00016922
INCLINATION    = 42.9977
RA_OF_ASC_NODE = 59.6862
ARG_OF_PERICENTER = 262.9116
MEAN_ANOMALY   = 49.5296

EPHEMERIS_TYPE = 0
CLASSIFICATION_TYPE = U
NORAD_CAT_ID   = 67987
ELEMENT_SET_NO = 999
REV_AT_EPOCH   = 275
BSTAR          = -.66730588E-2
MEAN_MOTION_DOT = -.1515025E-1
MEAN_MOTION_DDOT = 0

CCSDS_OMM_VERS = 2.0
CREATION_DATE  = 
ORIGINATOR     = 

OBJECT_NAME    = STARLINK-36734
OBJECT_ID      = 2026-039C
CENTER_NAME    = EARTH
REF_FRAME      = TEME
TIME_SYSTEM    = UTC
MEAN_ELEMENT_THEORY = SGP/SGP4

EPOCH          = 2026-03-08T22:00:01.999584
MEAN_MOTION    = 15.86333249
ECCENTRICITY   = .00016922
INCLINATION    = 42.9976
RA_OF_ASC_NODE = 59.6768
ARG_OF_PERICENTER = 260.3725
MEAN_ANOMALY   = 55.7067

EPHEMERIS_TYPE = 0
CLASSIFICATION_TYPE = U
NORAD_CAT_ID   = 67988
ELEMENT_SET_NO = 999
REV_AT_EPOCH   = 275
BSTAR          = -.66596284E-2
MEAN_MOTION_DOT = -.1522315E-1
MEAN_MOTION_DDOT = 0

CCSDS_OMM_VERS = 2.0
CREATION_DATE  = 
ORIGINATOR     = 

OBJECT_NAME    = STARLINK-36957
OBJECT_ID      = 2026-039D
CENTER_NAME    = EARTH
REF_FRAME      = TEME
TIME_SYSTEM    = UTC
MEAN_ELEMENT_THEORY = SGP/SGP4

EPOCH          = 2026-03-08T22:00:01.999584
MEAN_MOTION    = 15.86516713
ECCENTRICITY   = .0001757
INCLINATION    = 42.9975
RA_OF_ASC_NODE = 59.6679
ARG_OF_PERICENTER = 261.8550
MEAN_ANOMALY   = 57.5867

EPHEMERIS_TYPE = 0
CLASSIFICATION_TYPE = U
NORAD_CAT_ID   = 67989
ELEMENT_SET_NO = 999
REV_AT_EPOCH   = 275
BSTAR          = -.6549468E-2
MEAN_MOTION_DOT = -.1512221E-1
MEAN_MOTION_DDOT = 0

CCSDS_OMM_VERS = 2.0
CREATION_DATE  = 
ORIGINATOR     = 

OBJECT_NAME    = STARLINK-36951
OBJECT_ID      = 2026-039E
CENTER_NAME    = EARTH
REF_FRAME      = TEME
TIME_SYSTEM    = UTC
MEAN_ELEMENT_THEORY = SGP/SGP4

EPOCH          = 2026-03-08T22:00:01.999584
MEAN_MOTION    = 15.86668041
ECCENTRICITY   = .00017507
INCLINATION    = 42.9975
RA_OF_ASC_NODE = 59.6590
ARG_OF_PERICENTER = 263.5206
MEAN_ANOMALY   = 59.4965

EPHEMERIS_TYPE = 0
CLASSIFICATION_TYPE = U
NORAD_CAT_ID   = 67990
ELEMENT_SET_NO = 999
REV_AT_EPOCH   = 275
BSTAR          = -.65293913E-2
MEAN_MOTION_DOT = -.1518163E-1
MEAN_MOTION_DDOT = 0

CCSDS_OMM_VERS = 2.0
CREATION_DATE  = 
ORIGINATOR     = 

OBJECT_NAME    = STARLINK-36941
OBJECT_ID      = 2026-039F
CENTER_NAME    = EARTH
REF_FRAME      = TEME
TIME_SYSTEM    = UTC
MEAN_ELEMENT_THEORY = SGP/SGP4

EPOCH          = 2026-03-08T22:00:01.999584
MEAN_MOTION    = 15.86870219
ECCENTRICITY   = .00014156
INCLINATION    = 42.9973
RA_OF_ASC_NODE = 59.6506
ARG_OF_PERICENTER = 252.0873
MEAN_ANOMALY   = 74.1177

EPHEMERIS_TYPE = 0
CLASSIFICATION_TYPE = U
NORAD_CAT_ID   = 67991
ELEMENT_SET_NO = 999
REV_AT_EPOCH   = 275
BSTAR          = -.6424647E-2
MEAN_MOTION_DOT = -.1509734E-1
MEAN_MOTION_DDOT = 0

CCSDS_OMM_VERS = 2.0
CREATION_DATE  = 
ORIGINATOR     = 

OBJECT_NAME    = STARLINK-36950
OBJECT_ID      = 2026-039G
CENTER_NAME    = EARTH
REF_FRAME      = TEME
TIME_SYSTEM    = UTC
MEAN_ELEMENT_THEORY = SGP/SGP4

EPOCH          = 2026-03-08T22:00:01.999584
MEAN_MOTION    = 15.87012835
ECCENTRICITY   = .00017808
INCLINATION    = 42.9975
RA_OF_ASC_NODE = 59.6418
ARG_OF_PERICENTER = 258.0557
MEAN_ANOMALY   = 71.6466

EPHEMERIS_TYPE = 0
CLASSIFICATION_TYPE = U
NORAD_CAT_ID   = 67992
ELEMENT_SET_NO = 999
REV_AT_EPOCH   = 275
BSTAR          = -.63536996E-2
MEAN_MOTION_DOT = -.1504707E-1
MEAN_MOTION_DDOT = 0

CCSDS_OMM_VERS = 2.0
CREATION_DATE  = 
ORIGINATOR     = 

OBJECT_NAME    = STARLINK-36975
OBJECT_ID      = 2026-039H
CENTER_NAME    = EARTH
REF_FRAME      = TEME
TIME_SYSTEM    = UTC
MEAN_ELEMENT_THEORY = SGP/SGP4

EPOCH          = 2026-03-08T22:00:01.999584
MEAN_MOTION    = 15.87172726
ECCENTRICITY   = .00017766
INCLINATION    = 42.9975
RA_OF_ASC_NODE = 59.6333
ARG_OF_PERICENTER = 263.8349
MEAN_ANOMALY   = 69.2484

EPHEMERIS_TYPE = 0
CLASSIFICATION_TYPE = U
NORAD_CAT_ID   = 67993
ELEMENT_SET_NO = 999
REV_AT_EPOCH   = 275
BSTAR          = -.62804861E-2
MEAN_MOTION_DOT = -.1499918E-1
MEAN_MOTION_DDOT = 0

CCSDS_OMM_VERS = 2.0
CREATION_DATE  = 
ORIGINATOR     = 

OBJECT_NAME    = STARLINK-36993
OBJECT_ID      = 2026-039J
CENTER_NAME    = EARTH
REF_FRAME      = TEME
TIME_SYSTEM    = UTC
MEAN_ELEMENT_THEORY = SGP/SGP4

EPOCH          = 2026-03-08T22:00:01.999584
MEAN_MOTION    = 15.87320123
ECCENTRICITY   = .00017258
INCLINATION    = 42.9974
RA_OF_ASC_NODE = 59.6249
ARG_OF_PERICENTER = 264.0931
MEAN_ANOMALY   = 72.4983

EPHEMERIS_TYPE = 0
CLASSIFICATION_TYPE = U
NORAD_CAT_ID   = 67994
ELEMENT_SET_NO = 999
REV_AT_EPOCH   = 275
BSTAR          = -.62743952E-2
MEAN_MOTION_DOT = -.150839E-1
MEAN_MOTION_DDOT = 0

CCSDS_OMM_VERS = 2.0
CREATION_DATE  = 
ORIGINATOR     = 

OBJECT_NAME    = STARLINK-36968
OBJECT_ID      = 2026-039K
CENTER_NAME    = EARTH
REF_FRAME      = TEME
TIME_SYSTEM    = UTC
MEAN_ELEMENT_THEORY = SGP/SGP4

EPOCH          = 2026-03-08T22:00:01.999584
MEAN_MOTION    = 15.87525590
ECCENTRICITY   = .00017211
INCLINATION    = 42.9974
RA_OF_ASC_NODE = 59.6052
ARG_OF_PERICENTER = 261.4826
MEAN_ANOMALY   = 82.8033

EPHEMERIS_TYPE = 0
CLASSIFICATION_TYPE = U
NORAD_CAT_ID   = 67995
ELEMENT_SET_NO = 999
REV_AT_EPOCH   = 275
BSTAR          = -.64486601E-2
MEAN_MOTION_DOT = -.1559337E-1
MEAN_MOTION_DDOT = 0

CCSDS_OMM_VERS = 2.0
CREATION_DATE  = 
ORIGINATOR     = 

OBJECT_NAME    = STARLINK-36979
OBJECT_ID      = 2026-039L
CENTER_NAME    = EARTH
REF_FRAME      = TEME
TIME_SYSTEM    = UTC
MEAN_ELEMENT_THEORY = SGP/SGP4

EPOCH          = 2026-03-08T22:00:01.999584
MEAN_MOTION    = 15.87371147
ECCENTRICITY   = .00017879
INCLINATION    = 42.9972
RA_OF_ASC_NODE = 59.6135
ARG_OF_PERICENTER = 263.3376
MEAN_ANOMALY   = 77.5549

EPHEMERIS_TYPE = 0
CLASSIFICATION_TYPE = U
NORAD_CAT_ID   = 67996
ELEMENT_SET_NO = 999
REV_AT_EPOCH   = 275
BSTAR          = -.64929274E-2
MEAN_MOTION_DOT = -.1558153E-1
MEAN_MOTION_DDOT = 0

